{
    "links": {
        "self": "http://www.neowsapp.com/rest/v1/neo/3802003?api_key=iIulBulltgU6a56xZRHN4H3l9WmuAYTsLGpBGhQ2"
    },
    "id": "3802003",
    "neo_reference_id": "3802003",
    "name": "(2018 FV1)",
    "designation": "2018 FV1",
    "nasa_jpl_url": "http://ssd.jpl.nasa.gov/sbdb.cgi?sstr=3802003",
    "absolute_magnitude_h": 23.9,
    "estimated_diameter": {
        "kilometers": {
            "estimated_diameter_min": 0.04411182,
            "estimated_diameter_max": 0.0986370281
        },
        "meters": {
            "estimated_diameter_min": 44.1118199997,
            "estimated_diameter_max": 98.6370281305
        },
        "miles": {
            "estimated_diameter_min": 0.0274098057,
            "estimated_diameter_max": 0.0612901888
        },
        "feet": {
            "estimated_diameter_min": 144.7238235278,
            "estimated_diameter_max": 323.6123073718
        }
    },
    "is_potentially_hazardous_asteroid": false,
    "close_approach_data": [
        {
            "close_approach_date": "2018-04-01",
            "close_approach_date_full": "2018-Apr-01 13:54",
            "epoch_date_close_approach": 1522590840000,
            "relative_velocity": {
                "kilometers_per_second": "7.3543122268",
                "kilometers_per_hour": "26475.5240164993",
                "miles_per_hour": "16450.8610201409"
            },
            "miss_distance": {
                "astronomical": "0.0859852846",
                "lunar": "33.4482757094",
                "kilometers": "12863215.427503802",
                "miles": "7992831.4341323876"
            },
            "orbiting_body": "Earth"
        }
    ],
    "orbital_data": {
        "orbit_id": "4",
        "orbit_determination_date": "2018-04-06 06:22:30",
        "first_observation_date": "2018-03-10",
        "last_observation_date": "2018-03-27",
        "data_arc_in_days": 17,
        "observations_used": 38,
        "orbit_uncertainty": "7",
        "minimum_orbit_intersection": ".0614188",
        "jupiter_tisserand_invariant": "3.676",
        "epoch_osculation": "2459000.5",
        "eccentricity": ".4739444699006345",
        "semi_major_axis": "2.013305276312102",
        "inclination": "4.985706449618437",
        "ascending_node_longitude": "7.973199980618844",
        "orbital_period": "1043.428931603009",
        "perihelion_distance": "1.059110374382212",
        "perihelion_argument": "198.413590393929",
        "aphelion_distance": "2.967500178241992",
        "perihelion_time": "2459264.127980166672",
        "mean_anomaly": "269.0440470016499",
        "mean_motion": ".3450163102598046",
        "equinox": "J2000",
        "orbit_class": {
            "orbit_class_type": "AMO",
            "orbit_class_description": "Near-Earth asteroid orbits similar to that of 1221 Amor",
            "orbit_class_range": "1.017 AU < q (perihelion) < 1.3 AU"
        }
    },
    "is_sentry_object": false
}